[{"OBJECT_NAME":"TRANSPORTER-12 OBJECT BT","OBJECT_ID":"2025-009BT","EPOCH":"2026-03-09T17:08:24.281088","MEAN_MOTION":15.27872239,"ECCENTRICITY":0.00036816,"INCLINATION":97.4094,"RA_OF_ASC_NODE":151.5992,"ARG_OF_PERICENTER":313.5044,"MEAN_ANOMALY":46.5889,"EPHEMERIS_TYPE":0,"CLASSIFICATION_TYPE":"U","NORAD_CAT_ID":62674,"ELEMENT_SET_NO":999,"REV_AT_EPOCH":12136,"BSTAR":0.000510288,"MEAN_MOTION_DOT":0.00013824,"MEAN_MOTION_DDOT":0},{"OBJECT_NAME":"STARLINK-35985","OBJECT_ID":"2025-278AA","EPOCH":"2026-03-09T04:39:25.208064","MEAN_MOTION":15.27580568,"ECCENTRICITY":0.00010056,"INCLINATION":43.0024,"RA_OF_ASC_NODE":117.1271,"ARG_OF_PERICENTER":232.4448,"MEAN_ANOMALY":127.6312,"EPHEMERIS_TYPE":0,"CLASSIFICATION_TYPE":"U","NORAD_CAT_ID":66815,"ELEMENT_SET_NO":999,"REV_AT_EPOCH":1634,"BSTAR":0.0011061796,"MEAN_MOTION_DOT":0.00030303,"MEAN_MOTION_DDOT":0}]
